IXPE                    
1 49954U 21121A   23274.25468653  .00008025  00000+0  64451-3 0  9992
2 49954   0.2288 157.3238 0010146  28.5524 174.1115 14.94888505 98896
